CCSDS_OMM_VERS = 2.0
CREATION_DATE  = 
ORIGINATOR     = 

OBJECT_NAME    = 2020-061E
OBJECT_ID      = 2020-061E
CENTER_NAME    = EARTH
REF_FRAME      = TEME
TIME_SYSTEM    = UTC
MEAN_ELEMENT_THEORY = SGP/SGP4

EPOCH          = 2020-09-09T11:32:08.685312
MEAN_MOTION    = 15.16035549
ECCENTRICITY   = .0000453
INCLINATION    = 97.4643
RA_OF_ASC_NODE = 326.4668
ARG_OF_PERICENTER = 143.7371
MEAN_ANOMALY   = 216.3893

EPHEMERIS_TYPE = 0
CLASSIFICATION_TYPE = U
NORAD_CAT_ID   = 46276
ELEMENT_SET_NO = 999
REV_AT_EPOCH   = 96
BSTAR          = .20132E-4
MEAN_MOTION_DOT = 3.22E-6
MEAN_MOTION_DDOT = 0

CCSDS_OMM_VERS = 2.0
CREATION_DATE  = 
ORIGINATOR     = 

OBJECT_NAME    = 2020-061F
OBJECT_ID      = 2020-061F
CENTER_NAME    = EARTH
REF_FRAME      = TEME
TIME_SYSTEM    = UTC
MEAN_ELEMENT_THEORY = SGP/SGP4

EPOCH          = 2020-09-09T05:11:45.790944
MEAN_MOTION    = 15.16069420
ECCENTRICITY   = .0000282
INCLINATION    = 97.4642
RA_OF_ASC_NODE = 326.2074
ARG_OF_PERICENTER = 149.7180
MEAN_ANOMALY   = 210.4069

EPHEMERIS_TYPE = 0
CLASSIFICATION_TYPE = U
NORAD_CAT_ID   = 46277
ELEMENT_SET_NO = 999
REV_AT_EPOCH   = 92
BSTAR          = .16563E-4
MEAN_MOTION_DOT = 2.53E-6
MEAN_MOTION_DDOT = 0

CCSDS_OMM_VERS = 2.0
CREATION_DATE  = 
ORIGINATOR     = 

OBJECT_NAME    = GHGSAT-C1
OBJECT_ID      = 2020-061G
CENTER_NAME    = EARTH
REF_FRAME      = TEME
TIME_SYSTEM    = UTC
MEAN_ELEMENT_THEORY = SGP/SGP4

EPOCH          = 2020-09-09T05:10:22.397664
MEAN_MOTION    = 15.16311132
ECCENTRICITY   = .0001739
INCLINATION    = 97.4643
RA_OF_ASC_NODE = 326.2086
ARG_OF_PERICENTER = 9.0512
MEAN_ANOMALY   = 351.0752

EPHEMERIS_TYPE = 0
CLASSIFICATION_TYPE = U
NORAD_CAT_ID   = 46278
ELEMENT_SET_NO = 999
REV_AT_EPOCH   = 92
BSTAR          = .23673E-4
MEAN_MOTION_DOT = 3.93E-6
MEAN_MOTION_DDOT = 0

CCSDS_OMM_VERS = 2.0
CREATION_DATE  = 
ORIGINATOR     = 

OBJECT_NAME    = STARLINK-1734
OBJECT_ID      = 2020-062A
CENTER_NAME    = EARTH
REF_FRAME      = TEME
TIME_SYSTEM    = UTC
MEAN_ELEMENT_THEORY = SGP/SGP4

EPOCH          = 2020-09-09T07:15:00.110304
MEAN_MOTION    = 16.15945368
ECCENTRICITY   = .0041584
INCLINATION    = 52.9928
RA_OF_ASC_NODE = 41.2322
ARG_OF_PERICENTER = 64.6909
MEAN_ANOMALY   = 296.0171

EPHEMERIS_TYPE = 0
CLASSIFICATION_TYPE = U
NORAD_CAT_ID   = 46325
ELEMENT_SET_NO = 999
REV_AT_EPOCH   = 218
BSTAR          = -.36944E-3
MEAN_MOTION_DOT = -6.43142E-3
MEAN_MOTION_DDOT = .11731E-4

CCSDS_OMM_VERS = 2.0
CREATION_DATE  = 
ORIGINATOR     = 

OBJECT_NAME    = CZ-2F R/B
OBJECT_ID      = 2020-063B
CENTER_NAME    = EARTH
REF_FRAME      = TEME
TIME_SYSTEM    = UTC
MEAN_ELEMENT_THEORY = SGP/SGP4

EPOCH          = 2020-09-09T05:39:14.632992
MEAN_MOTION    = 15.77518190
ECCENTRICITY   = .0015807
INCLINATION    = 50.2045
RA_OF_ASC_NODE = 40.0695
ARG_OF_PERICENTER = 315.6843
MEAN_ANOMALY   = 44.2871

EPHEMERIS_TYPE = 0
CLASSIFICATION_TYPE = U
NORAD_CAT_ID   = 46390
ELEMENT_SET_NO = 999
REV_AT_EPOCH   = 78
BSTAR          = .67681E-4
MEAN_MOTION_DOT = 1.0937E-4
MEAN_MOTION_DDOT = 0

CCSDS_OMM_VERS = 2.0
CREATION_DATE  = 
ORIGINATOR     = 

OBJECT_NAME    = CZ-2F DEB
OBJECT_ID      = 2020-063C
CENTER_NAME    = EARTH
REF_FRAME      = TEME
TIME_SYSTEM    = UTC
MEAN_ELEMENT_THEORY = SGP/SGP4

EPOCH          = 2020-09-08T23:24:21.501504
MEAN_MOTION    = 15.37242808
ECCENTRICITY   = .0159867
INCLINATION    = 49.9029
RA_OF_ASC_NODE = 43.0188
ARG_OF_PERICENTER = 164.4089
MEAN_ANOMALY   = 196.1844

EPHEMERIS_TYPE = 0
CLASSIFICATION_TYPE = U
NORAD_CAT_ID   = 46391
ELEMENT_SET_NO = 999
REV_AT_EPOCH   = 71
BSTAR          = .10971E-2
MEAN_MOTION_DOT = 6.3289E-4
MEAN_MOTION_DDOT = 0

CCSDS_OMM_VERS = 2.0
CREATION_DATE  = 
ORIGINATOR     = 

OBJECT_NAME    = CZ-2F DEB
OBJECT_ID      = 2020-063D
CENTER_NAME    = EARTH
REF_FRAME      = TEME
TIME_SYSTEM    = UTC
MEAN_ELEMENT_THEORY = SGP/SGP4

EPOCH          = 2020-09-08T19:33:22.595040
MEAN_MOTION    = 15.47658049
ECCENTRICITY   = .0116489
INCLINATION    = 49.8676
RA_OF_ASC_NODE = 43.4884
ARG_OF_PERICENTER = 170.1718
MEAN_ANOMALY   = 190.1550

EPHEMERIS_TYPE = 0
CLASSIFICATION_TYPE = U
NORAD_CAT_ID   = 46392
ELEMENT_SET_NO = 999
REV_AT_EPOCH   = 69
BSTAR          = .11638E-2
MEAN_MOTION_DOT = 8.0722E-4
MEAN_MOTION_DDOT = 0

CCSDS_OMM_VERS = 2.0
CREATION_DATE  = 
ORIGINATOR     = 

OBJECT_NAME    = CZ-2F DEB
OBJECT_ID      = 2020-063E
CENTER_NAME    = EARTH
REF_FRAME      = TEME
TIME_SYSTEM    = UTC
MEAN_ELEMENT_THEORY = SGP/SGP4

EPOCH          = 2020-09-08T23:10:56.891136
MEAN_MOTION    = 15.62037376
ECCENTRICITY   = .0106924
INCLINATION    = 50.4194
RA_OF_ASC_NODE = 41.9917
ARG_OF_PERICENTER = 223.4398
MEAN_ANOMALY   = 135.8113

EPHEMERIS_TYPE = 0
CLASSIFICATION_TYPE = U
NORAD_CAT_ID   = 46393
ELEMENT_SET_NO = 999
REV_AT_EPOCH   = 55
BSTAR          = .11509E-2
MEAN_MOTION_DOT = 1.3907E-3
MEAN_MOTION_DDOT = 0

CCSDS_OMM_VERS = 2.0
CREATION_DATE  = 
ORIGINATOR     = 

OBJECT_NAME    = CZ-2F DEB
OBJECT_ID      = 2020-063F
CENTER_NAME    = EARTH
REF_FRAME      = TEME
TIME_SYSTEM    = UTC
MEAN_ELEMENT_THEORY = SGP/SGP4

EPOCH          = 2020-09-08T22:09:20.698272
MEAN_MOTION    = 15.54698071
ECCENTRICITY   = .0113865
INCLINATION    = 50.4633
RA_OF_ASC_NODE = 42.4515
ARG_OF_PERICENTER = 205.6064
MEAN_ANOMALY   = 153.9505

EPHEMERIS_TYPE = 0
CLASSIFICATION_TYPE = U
NORAD_CAT_ID   = 46394
ELEMENT_SET_NO = 999
REV_AT_EPOCH   = 58
BSTAR          = .10856E-2
MEAN_MOTION_DOT = 9.8914E-4
MEAN_MOTION_DDOT = 0

CCSDS_OMM_VERS = 2.0
CREATION_DATE  = 
ORIGINATOR     = 

OBJECT_NAME    = GAOFEN 11-2
OBJECT_ID      = 2020-064A
CENTER_NAME    = EARTH
REF_FRAME      = TEME
TIME_SYSTEM    = UTC
MEAN_ELEMENT_THEORY = SGP/SGP4

EPOCH          = 2020-09-09T04:51:50.673312
MEAN_MOTION    = 15.31798244
ECCENTRICITY   = .0326550
INCLINATION    = 97.3306
RA_OF_ASC_NODE = 5.3398
ARG_OF_PERICENTER = 164.6036
MEAN_ANOMALY   = 289.2895

EPHEMERIS_TYPE = 0
CLASSIFICATION_TYPE = U
NORAD_CAT_ID   = 46396
ELEMENT_SET_NO = 999
REV_AT_EPOCH   = 30
BSTAR          = .00000E+0
MEAN_MOTION_DOT = -5.97E-6
MEAN_MOTION_DDOT = .18911E-5

CCSDS_OMM_VERS = 2.0
CREATION_DATE  = 
ORIGINATOR     = 

OBJECT_NAME    = CZ-4B R/B
OBJECT_ID      = 2020-064B
CENTER_NAME    = EARTH
REF_FRAME      = TEME
TIME_SYSTEM    = UTC
MEAN_ELEMENT_THEORY = SGP/SGP4

EPOCH          = 2020-09-09T03:46:20.853120
MEAN_MOTION    = 15.68182580
ECCENTRICITY   = .0197360
INCLINATION    = 97.2642
RA_OF_ASC_NODE = 5.3562
ARG_OF_PERICENTER = 144.2573
MEAN_ANOMALY   = 305.9646

EPHEMERIS_TYPE = 0
CLASSIFICATION_TYPE = U
NORAD_CAT_ID   = 46397
ELEMENT_SET_NO = 999
REV_AT_EPOCH   = 30
BSTAR          = .00000E+0
MEAN_MOTION_DOT = -6.34E-6
MEAN_MOTION_DDOT = .20067E-5

